EGYPTSAT-A (MISRSAT-A)  
1 44047U 19008A   25177.57000323  .00000419  00000+0  74039-4 0  9999
2 44047  98.0197 242.5098 0001968  97.4016 262.7415 14.72365970340914
EMISAT                  
1 44078U 19018A   25177.59315357  .00000180  00000+0  65456-4 0  9990
2 44078  98.2861 234.1321 0017678 205.9747 154.0558 14.43729340328758
JILIN-1 GAOFEN 3A       
1 44312U 19032C   25177.58025177  .00005970  00000+0  26002-3 0  9999
2 44312  44.9826 139.5166 0010786  67.8977 292.3049 15.23092087333450
XIAOXIANG 4             
1 44313U 19032D   25176.97329768  .00051341  00000+0  72732-3 0  9999
2 44313  44.9905  74.3261 0014639 151.1614 209.0091 15.55642769334239
WT 1A                   
1 44315U 19032F   25177.04108000  .00019750  00000+0  50385-3 0  9992
2 44315  44.9855  92.1920 0014615 124.8561 235.3702 15.39156176333983
WT 1B                   
1 44316U 19032G   25177.51003409  .00003987  00000+0  20651-3 0  9990
2 44316  44.9756 188.3727 0015165  19.5167 340.6289 15.17793057332878
PROX-1                  
1 44339U 19036A   25177.60719466  .00007276  00000+0  90109-3 0  9996
2 44339  23.9982 309.9256 0006751 270.6468  89.3255 14.80243300320545
NPSAT1                  
1 44340U 19036B   25177.59746743  .00003759  00000+0  57887-3 0  9992
2 44340  24.0001   4.8802 0008396 166.2733 193.7991 14.69670102320033
FORMOSAT 7-3            
1 44343U 19036E   25177.10144548  .00003133  00000+0  18831-3 0  9999
2 44343  23.9990 101.9684 0000883  27.0010 333.0539 15.05806812329433
FORMOSAT 7-1            
1 44349U 19036L   25177.56968406  .00002938  00000+0  17574-3 0  9997
2 44349  23.9988 274.8234 0002176 102.6347 257.4399 15.05697874331271
FORMOSAT 7-4            
1 44350U 19036M   25177.59117764  .00003285  00000+0  19941-3 0  9991
2 44350  24.0002 336.7557 0001018  30.8952 329.1610 15.05647658330699
FORMOSAT 7-2            
1 44351U 19036N   25177.28214828  .00003307  00000+0  20033-3 0  9996
2 44351  23.9997  33.1851 0001172  55.0436 305.0177 15.05748113330164
FORMOSAT 7-6            
1 44353U 19036Q   25177.41480110  .00002758  00000+0  16355-3 0  9993
2 44353  23.9966 213.1100 0001366 128.6745 231.3880 15.05709219328415
FORMOSAT 7-5            
1 44358U 19036V   25177.59054881  .00002930  00000+0  17537-3 0  9994
2 44358  23.9979 151.6786 0000381  17.9783 342.0733 15.05668365328961
METEOR-M2 2             
1 44387U 19038A   25177.56944620  .00000044  00000+0  38779-4 0  9990
2 44387  98.8750 155.4183 0001130  20.8423 339.2801 14.24212462310677
SONATE                  
1 44400U 19038Q   25176.63875554  .00656706  22925-3  73821-3 0  9994
2 44400  97.6683 206.0672 0009184 189.3243 170.7870 16.09307766332146
COSMOS 2535             
1 44421U 19039A   25177.54829832  .00000624  00000+0  68915-4 0  9994
2 44421  97.6177 213.7043 0007557 325.5963  34.4765 14.90791264323630
QIANSHENG 1-01          
1 44486U 19052A   25177.56108535  .00169248  00000+0  84486-3 0  9990
2 44486  97.3536 258.4023 0001079 275.9206  84.1939 15.81388936324514
GLOBAL-4                
1 44499U 19054E   25177.44301306  .00012442  00000+0  31927-3 0  9999
2 44499  45.0121  85.0957 0005624 202.0793 157.9853 15.39400195325161
ZY-1 02D                
1 44528U 19059A   25177.57418636  .00000092  00000+0  46904-4 0  9996
2 44528  98.3672 245.6910 0002800 100.7205 259.4296 14.35443223303321
TAURUS-1 (JINNIUZUO 1)  
1 44530U 19059C   25177.51734106  .00004122  00000+0  76133-3 0  9990
2 44530  98.6089 317.7167 0008389 350.5447   9.5595 14.66005237306428
ZHUHAI-1 03A            
1 44534U 19060A   25177.57091022  .00140242  00000+0  71907-3 0  9993
2 44534  97.5212 325.8117 0004652 129.0465 231.1217 15.80867458321970
ZHUHAI-1 03B            
1 44536U 19060C   25177.54439225  .00012316  00000+0  38395-3 0  9997
2 44536  97.5195 318.2127 0014148 158.4059 201.7782 15.33295353321499
ZHUHAI-1 03C            
1 44537U 19060D   25177.57658855  .00019282  00000+0  44124-3 0  9999
2 44537  97.5455 321.2815 0019939 129.4276 230.8740 15.42638557321729
ZHUHAI-1 03D            
1 44538U 19060E   25177.54545999  .00010769  00000+0  36602-3 0  9994
2 44538  97.5026 313.0693 0013216 139.7756 220.4465 15.30564240321370
ZHUHAI-1 03E            
1 44539U 19060F   25177.52592591  .00009663  00000+0  36156-3 0  9998
2 44539  97.5222 315.0159 0011423 190.8912 169.2081 15.27468742321244
ATLAS 5 CENTAUR DEB     
1 44694U 18079BG  25174.30757194 -.00000137  00000+0  00000+0 0  9997
2 44694  13.1989  68.3967 4749638 241.9385  62.3323  1.77432389 40199
GAOFEN-7                
1 44703U 19072A   25177.57531765  .00003293  00000+0  14981-3 0  9990
2 44703  97.2908 246.3136 0010880 169.6752 190.4709 15.21348628313572
STARLINK-1010           
1 44716U 19074D   25177.56873681  .00076221  00000+0  13102-2 0  9995
2 44716  53.0540 241.8124 0007785 316.4196  43.6196 15.50443562310334
JILIN-1 GAOFEN 2A       
1 44777U 19075A   25177.59354504  .00007238  00000+0  26534-3 0  9990
2 44777  97.5319 250.4759 0006712 265.6352  94.4121 15.28281814310388
NINGXIA-1 1             
1 44779U 19076A   25177.59416536 -.00000100  00000+0  19093-4 0  9992
2 44779  45.0080 328.8212 0011398 272.5458  87.4071 14.01926722287953
NINGXIA-1 5             
1 44783U 19076E   25177.60724735 -.00000115  00000+0  97012-5 0  9996
2 44783  45.0079 328.1117 0011447 260.8904  99.0635 14.01950856287875
KL-ALPHA A              
1 44785U 19077A   25177.60360430  .00000074  00000+0  88631-4 0  9996
2 44785  88.9099 261.8356 0013047  71.7900 288.4673 13.55997862277541
CARTOSAT-3              
1 44804U 19081A   25177.55615953  .00002753  00000+0  13376-3 0  9999
2 44804  97.4802 239.0057 0012414 317.0195  43.0069 15.19234029309477
JILIN-1 GAOFEN 2B       
1 44836U 19086A   25177.58497441  .00004049  00000+0  21814-3 0  9998
2 44836  97.5309 247.3329 0017409 114.6208 245.6840 15.15251679306542
DUCHIFAT-3              
1 44854U 19089C   25177.59598258  .00032817  00000+0  61363-3 0  9997
2 44854  36.9415 246.8971 0003365 105.1227 254.9902 15.47818091305651
ANGELS                  
1 44876U 19092D   25177.48664901  .00020212  00000+0  42807-3 0  9990
2 44876  97.4539  16.3508 0007893  73.2666 286.9448 15.45106943306758
TIANQIN 1 (CAS-6)       
1 44879U 19093A   25177.54811905  .00001962  00000+0  19549-3 0  9997
2 44879  97.8072 259.1392 0012650 151.2924 208.8994 14.92703112298948
ETRSS-1                 
1 44880U 19093B   25177.55190477  .00001837  00000+0  18264-3 0  9998
2 44880  97.8081 259.4006 0012829 152.1015 208.0895 14.92861882298945
TIANYAN 01              
1 44881U 19093C   25177.53299632  .00000621  00000+0  77740-4 0  9995
2 44881  97.7923 252.8284 0014047 170.1489 190.0004 14.85629497298593
TIANYAN 02              
1 44882U 19093D   25177.55987161  .00003848  00000+0  32043-3 0  9999
2 44882  97.8198 265.2026 0011412 144.4023 215.7963 14.99210571299226
CBERS 4A                
1 44883U 19093E   25177.51653166  .00000709  00000+0  96765-4 0  9996
2 44883  97.7927 250.3024 0001267 192.8226 167.2955 14.81591868298412
WEILAI 1R               
1 44884U 19093F   25177.55881254  .00002911  00000+0  26205-3 0  9990
2 44884  97.8097 262.5363 0011033 147.3559 212.8346 14.96361488299162
FLORIPASAT-1            
1 44885U 19093G   25177.50813578  .00003790  00000+0  32053-3 0  9994
2 44885  97.8158 265.1436 0011651 146.6966 213.4992 14.98612313299286
SHUNTIAN                
1 44886U 19093H   25177.54474230  .00001603  00000+0  16130-3 0  9996
2 44886  97.8212 262.8253 0012906 161.2601 198.9096 14.92570797299085
2019-093L               
1 44889U 19093L   25177.54957089  .00001938  00000+0  19791-3 0  9994
2 44889  97.7890 255.0582 0013470 148.0464 212.1574 14.91712635298734
ELEKTRO-L 3             
1 44903U 19095A   25177.59645067 -.00000102  00000+0  00000+0 0  9990
2 44903   0.0843 151.0877 0000499   7.6804  46.9540  1.00271053 20147
GONETS-M 14             
1 44905U 19096A   25177.57260369  .00000023  00000+0  91017-4 0  9993
2 44905  82.5242 305.0870 0013605 204.7624 155.2804 12.42894032249500
GONETS-M 15             
1 44906U 19096B   25177.59777483  .00000025  00000+0  10892-3 0  9999
2 44906  82.5263 305.4692 0015096 227.7284 132.2516 12.42896342249470
GONETS-M 16             
1 44907U 19096C   25177.54487352  .00000025  00000+0  11036-3 0  9999
2 44907  82.5208 304.6156 0010282 271.0037  88.9865 12.42854636249458
RS-44 & BREEZE-KM R/B   
1 44909U 19096E   25177.51894976  .00000025  00000+0  61875-4 0  9999
2 44909  82.5202 216.0243 0216294 255.9073 101.7904 12.79741492256854
JILIN-1 KUANFU 01       
1 45016U 20003A   25177.55007692  .00002887  00000+0  17752-3 0  9996
2 45016  97.5411 252.8784 0002340 189.2336 170.8851 15.10832167301651
XINGYUN-2 01            
1 45602U 20028A   25177.58748815  .00001709  00000+0  11029-3 0  9999
2 45602  97.4652 173.1216 0009356 358.4218   1.6980 15.09543570281157
XINGYUN-2 02            
1 45603U 20028B   25177.52088249  .00001417  00000+0  92395-4 0  9994
2 45603  97.5081 185.2811 0012945  58.8966 301.3531 15.09429117281140
HAIYANG-1D              
1 45721U 20036A   25177.58696074  .00000084  00000+0  45817-4 0  9997
2 45721  98.6303 122.4992 0002667  82.5299 277.6188 14.34116284264000
M2 PATHFINDER           
1 45727U 20037E   25177.45761214  .00002367  00000+0  18389-3 0  9998
2 45727  97.8139   0.2277 0012139 272.9449  87.0386 15.02273558272040
GAOFEN DUOMO (GFDM)     
1 45856U 20042A   25177.56922620  .00000560  00000+0  86852-4 0  9993
2 45856  97.8239 244.3483 0013241 140.0031 220.2157 14.76768399268528
ZINYUAN-3               
1 45939U 20051A   25177.55513750  .00003916  00000+0  17733-3 0  9993
2 45939  97.3265 250.7868 0004382 162.9333 197.2051 15.21444067273274
TYVAK-0172              
1 46267U 20059C   25177.33015562  .00017199  00000+0  54655-3 0  9992
2 46267  97.7742  37.5741 0002724  95.4856 264.6696 15.32704417263523
